{
    "links": {
        "self": "http://www.neowsapp.com/rest/v1/neo/3406338?api_key=iIulBulltgU6a56xZRHN4H3l9WmuAYTsLGpBGhQ2"
    },
    "id": "3406338",
    "neo_reference_id": "3406338",
    "name": "(2008 EK85)",
    "designation": "2008 EK85",
    "nasa_jpl_url": "http://ssd.jpl.nasa.gov/sbdb.cgi?sstr=3406338",
    "absolute_magnitude_h": 28.4,
    "estimated_diameter": {
        "kilometers": {
            "estimated_diameter_min": 0.0055533491,
            "estimated_diameter_max": 0.0124176661
        },
        "meters": {
            "estimated_diameter_min": 5.5533491158,
            "estimated_diameter_max": 12.4176661257
        },
        "miles": {
            "estimated_diameter_min": 0.0034506901,
            "estimated_diameter_max": 0.0077159776
        },
        "feet": {
            "estimated_diameter_min": 18.2196499131,
            "estimated_diameter_max": 40.740375732
        }
    },
    "is_potentially_hazardous_asteroid": false,
    "close_approach_data": [
        {
            "close_approach_date": "2000-01-13",
            "close_approach_date_full": "2000-Jan-13 21:50",
            "epoch_date_close_approach": 947800200000,
            "relative_velocity": {
                "kilometers_per_second": "14.9667328221",
                "kilometers_per_hour": "53880.2381595215",
                "miles_per_hour": "33479.0846497316"
            },
            "miss_distance": {
                "astronomical": "0.3765646178",
                "lunar": "146.4836363242",
                "kilometers": "56333264.740244086",
                "miles": "35003867.5586809468"
            },
            "orbiting_body": "Earth"
        },
        {
            "close_approach_date": "2008-03-14",
            "close_approach_date_full": "2008-Mar-14 08:02",
            "epoch_date_close_approach": 1205481720000,
            "relative_velocity": {
                "kilometers_per_second": "5.2361549934",
                "kilometers_per_hour": "18850.1579762275",
                "miles_per_hour": "11712.7551047287"
            },
            "miss_distance": {
                "astronomical": "0.0112053342",
                "lunar": "4.3588750038",
                "kilometers": "1676294.128958154",
                "miles": "1041600.8720603652"
            },
            "orbiting_body": "Earth"
        },
        {
            "close_approach_date": "2050-04-24",
            "close_approach_date_full": "2050-Apr-24 07:53",
            "epoch_date_close_approach": 2534399580000,
            "relative_velocity": {
                "kilometers_per_second": "13.9918875473",
                "kilometers_per_hour": "50370.7951701972",
                "miles_per_hour": "31298.4532545039"
            },
            "miss_distance": {
                "astronomical": "0.3318812807",
                "lunar": "129.1018181923",
                "kilometers": "49648732.685592109",
                "miles": "30850291.9437807442"
            },
            "orbiting_body": "Earth"
        },
        {
            "close_approach_date": "2071-04-20",
            "close_approach_date_full": "2071-Apr-20 16:33",
            "epoch_date_close_approach": 3196773180000,
            "relative_velocity": {
                "kilometers_per_second": "12.1910393187",
                "kilometers_per_hour": "43887.7415471551",
                "miles_per_hour": "27270.1358518976"
            },
            "miss_distance": {
                "astronomical": "0.2722114502",
                "lunar": "105.8902541278",
                "kilometers": "40722253.139531074",
                "miles": "25303634.7557698612"
            },
            "orbiting_body": "Earth"
        },
        {
            "close_approach_date": "2108-04-30",
            "close_approach_date_full": "2108-Apr-30 21:50",
            "epoch_date_close_approach": 4365265800000,
            "relative_velocity": {
                "kilometers_per_second": "16.4319951972",
                "kilometers_per_hour": "59155.1827100021",
                "miles_per_hour": "36756.7300566677"
            },
            "miss_distance": {
                "astronomical": "0.41789",
                "lunar": "162.55921",
                "kilometers": "62515453.8943",
                "miles": "38845301.76934"
            },
            "orbiting_body": "Earth"
        }
    ],
    "orbital_data": {
        "orbit_id": "6",
        "orbit_determination_date": "2017-04-06 09:03:58",
        "first_observation_date": "2008-03-14",
        "last_observation_date": "2008-03-15",
        "data_arc_in_days": 1,
        "observations_used": 10,
        "orbit_uncertainty": "8",
        "minimum_orbit_intersection": ".0110675",
        "jupiter_tisserand_invariant": "4.752",
        "epoch_osculation": "2454540.5",
        "eccentricity": ".2765811845854488",
        "semi_major_axis": "1.380738158895791",
        "inclination": "6.611242925765868",
        "ascending_node_longitude": "355.1019307710627",
        "orbital_period": "592.6051454321247",
        "perihelion_distance": ".9988519633060617",
        "perihelion_argument": "164.9865234432168",
        "aphelion_distance": "1.762624354485521",
        "perihelion_time": "2454527.392999477615",
        "mean_anomaly": "7.962334151887728",
        "mean_motion": ".6074871316506876",
        "equinox": "J2000",
        "orbit_class": {
            "orbit_class_type": "APO",
            "orbit_class_description": "Near-Earth asteroid orbits which cross the Earth’s orbit similar to that of 1862 Apollo",
            "orbit_class_range": "a (semi-major axis) > 1.0 AU; q (perihelion) < 1.017 AU"
        }
    },
    "is_sentry_object": false
}